{"type": "FeatureCollection", "features": [ {"type": "Feature", "properties": {"norad_id": 31269, "name": "FENGYUN 1C DEB", "group": "fengyun-1c-debris", "lat": -34.430572705357456, "lon": -115.10217002455553, "alt_km": 764.074796744053, "timestamp": "2025-12-27T17:24:57.686826+00:00", "meta": {"OBJECT_NAME": "FENGYUN 1C DEB", "OBJECT_ID": "1999-025BNB", "EPOCH": "2025-12-27T03:20:22.814880", "MEAN_MOTION": 14.43953819, "ECCENTRICITY": 0.02390284, "INCLINATION": 98.1806, "RA_OF_ASC_NODE": 238.6742, "ARG_OF_PERICENTER": 231.4976, "MEAN_ANOMALY": 283.9713, "EPHEMERIS_TYPE": 0, "CLASSIFICATION_TYPE": "U", "NORAD_CAT_ID": 31269, "ELEMENT_SET_NO": 999, "REV_AT_EPOCH": 96694, "BSTAR": 0.002151517, "MEAN_MOTION_DOT": 0.00010378, "MEAN_MOTION_DDOT": 0}, "tle": {"line1": "1 31269U 99025BNB 25361.13915295  .00010378  00000+0  21515-2 0  9992", "line2": "2 31269  98.1806 238.6742 0239028 231.4976 283.9713 14.43953819966947"}}, "geometry": {"type": "Point", "coordinates": [-115.10217002455553, -34.430572705357456]}}, {"type": "Feature", "properties": {"norad_id": 31272, "name": "FENGYUN 1C DEB", "group": "fengyun-1c-debris", "lat": 72.47382889270665, "lon": -156.45358060341903, "alt_km": 731.595654877452, "timestamp": "2025-12-27T17:24:57.686837+00:00", "meta": {"OBJECT_NAME": "FENGYUN 1C DEB", "OBJECT_ID": "1999-025BNE", "EPOCH": "2025-12-26T09:00:25.521696", "MEAN_MOTION": 14.229501, "ECCENTRICITY": 0.0107081, "INCLINATION": 99.0913, "RA_OF_ASC_NODE": 232.619, "ARG_OF_PERICENTER": 74.0587, "MEAN_ANOMALY": 287.2358, "EPHEMERIS_TYPE": 0, "CLASSIFICATION_TYPE": "U", "NORAD_CAT_ID": 31272, "ELEMENT_SET_NO": 999, "REV_AT_EPOCH": 97183, "BSTAR": 0.00048874, "MEAN_MOTION_DOT": 1.12e-05, "MEAN_MOTION_DDOT": 0}, "tle": {"line1": "1 31272U 99025BNE 25360.37529539  .00001120  00000+0  48874-3 0  9996", "line2": "2 31272  99.0913 232.6190 0107081  74.0587 287.2358 14.22950100971836"}}, "geometry": {"type": "Point", "coordinates": [-156.45358060341903, 72.47382889270665]}}, {"type": "Feature", "properties": {"norad_id": 31274, "name": "FENGYUN 1C DEB", "group": "fengyun-1c-debris", "lat": 52.5027304032566, "lon": 168.59625894557666, "alt_km": 771.0835248650883, "timestamp": "2025-12-27T17:24:57.686847+00:00", "meta": {"OBJECT_NAME": "FENGYUN 1C DEB", "OBJECT_ID": "1999-025BNG", "EPOCH": "2025-12-20T18:48:10.459296", "MEAN_MOTION": 13.8564505, "ECCENTRICITY": 0.0237962, "INCLINATION": 99.0043, "RA_OF_ASC_NODE": 173.8465, "ARG_OF_PERICENTER": 88.2094, "MEAN_ANOMALY": 274.6299, "EPHEMERIS_TYPE": 0, "CLASSIFICATION_TYPE": "U", "NORAD_CAT_ID": 31274, "ELEMENT_SET_NO": 999, "REV_AT_EPOCH": 94318, "BSTAR": 0.00061688976, "MEAN_MOTION_DOT": 8.4e-06, "MEAN_MOTION_DDOT": 0}, "tle": {"line1": "1 31274U 99025BNG 25354.78345439  .00000840  00000+0  61689-3 0  9998", "line2": "2 31274  99.0043 173.8465 0237962  88.2094 274.6299 13.85645050943189"}}, "geometry": {"type": "Point", "coordinates": [168.59625894557666, 52.5027304032566]}}, {"type": "Feature", "properties": {"norad_id": 31275, "name": "FENGYUN 1C DEB", "group": "fengyun-1c-debris", "lat": 66.51076471889212, "lon": 23.540181834572085, "alt_km": 913.145150922911, "timestamp": "2025-12-27T17:24:57.686858+00:00", "meta": {"OBJECT_NAME": "FENGYUN 1C DEB", "OBJECT_ID": "1999-025BNH", "EPOCH": "2025-12-26T22:15:25.924032", "MEAN_MOTION": 14.02360573, "ECCENTRICITY": 0.010359, "INCLINATION": 98.9438, "RA_OF_ASC_NODE": 44.0019, "ARG_OF_PERICENTER": 313.0234, "MEAN_ANOMALY": 46.2288, "EPHEMERIS_TYPE": 0, "CLASSIFICATION_TYPE": "U", "NORAD_CAT_ID": 31275, "ELEMENT_SET_NO": 999, "REV_AT_EPOCH": 95685, "BSTAR": 0.0010056, "MEAN_MOTION_DOT": 1.573e-05, "MEAN_MOTION_DDOT": 0}, "tle": {"line1": "1 31275U 99025BNH 25360.92738338  .00001573  00000+0  10056-2 0  9991", "line2": "2 31275  98.9438  44.0019 0103590 313.0234  46.2288 14.02360573956857"}}, "geometry": {"type": "Point", "coordinates": [23.540181834572085, 66.51076471889212]}}, {"type": "Feature", "properties": {"norad_id": 31279, "name": "FENGYUN 1C DEB", "group": "fengyun-1c-debris", "lat": 73.76671354023415, "lon": -21.373415980038786, "alt_km": 768.2429763714208, "timestamp": "2025-12-27T17:24:57.686868+00:00", "meta": {"OBJECT_NAME": "FENGYUN 1C DEB", "OBJECT_ID": "1999-025BNM", "EPOCH": "2025-12-25T06:08:02.060160", "MEAN_MOTION": 14.2633542, "ECCENTRICITY": 0.0074243, "INCLINATION": 98.5169, "RA_OF_ASC_NODE": 7.1994, "ARG_OF_PERICENTER": 141.2243, "MEAN_ANOMALY": 219.4299, "EPHEMERIS_TYPE": 0, "CLASSIFICATION_TYPE": "U", "NORAD_CAT_ID": 31279, "ELEMENT_SET_NO": 999, "REV_AT_EPOCH": 97407, "BSTAR": 0.00044407, "MEAN_MOTION_DOT": 1.056e-05, "MEAN_MOTION_DDOT": 0}, "tle": {"line1": "1 31279U 99025BNM 25359.25557940  .00001056  00000+0  44407-3 0  9991", "line2": "2 31279  98.5169   7.1994 0074243 141.2243 219.4299 14.26335420974072"}}, "geometry": {"type": "Point", "coordinates": [-21.373415980038786, 73.76671354023415]}}, {"type": "Feature", "properties": {"norad_id": 31281, "name": "FENGYUN 1C DEB", "group": "fengyun-1c-debris", "lat": -79.17326347709732, "lon": -92.01081995004105, "alt_km": 575.2640558901021, "timestamp": "2025-12-27T17:24:57.686878+00:00", "meta": {"OBJECT_NAME": "FENGYUN 1C DEB", "OBJECT_ID": "1999-025BNP", "EPOCH": "2025-12-27T08:21:04.507776", "MEAN_MOTION": 15.18169718, "ECCENTRICITY": 0.0111962, "INCLINATION": 98.3848, "RA_OF_ASC_NODE": 138.038, "ARG_OF_PERICENTER": 42.0698, "MEAN_ANOMALY": 318.9062, "EPHEMERIS_TYPE": 0, "CLASSIFICATION_TYPE": "U", "NORAD_CAT_ID": 31281, "ELEMENT_SET_NO": 999, "REV_AT_EPOCH": 99953, "BSTAR": 0.0011784, "MEAN_MOTION_DOT": 0.00028389, "MEAN_MOTION_DDOT": 0}, "tle": {"line1": "1 31281U 99025BNP 25361.34796884  .00028389  00000+0  11784-2 0  9998", "line2": "2 31281  98.3848 138.0380 0111962  42.0698 318.9062 15.18169718999530"}}, "geometry": {"type": "Point", "coordinates": [-92.01081995004105, -79.17326347709732]}}, {"type": "Feature", "properties": {"norad_id": 31282, "name": "FENGYUN 1C DEB", "group": "fengyun-1c-debris", "lat": -56.0066099885945, "lon": 86.29526984606288, "alt_km": 663.8800855624495, "timestamp": "2025-12-27T17:24:57.686888+00:00", "meta": {"OBJECT_NAME": "FENGYUN 1C DEB", "OBJECT_ID": "1999-025BNQ", "EPOCH": "2025-12-25T12:44:35.954016", "MEAN_MOTION": 14.43490809, "ECCENTRICITY": 0.0126915, "INCLINATION": 99.2176, "RA_OF_ASC_NODE": 277.855, "ARG_OF_PERICENTER": 248.5077, "MEAN_ANOMALY": 110.2539, "EPHEMERIS_TYPE": 0, "CLASSIFICATION_TYPE": "U", "NORAD_CAT_ID": 31282, "ELEMENT_SET_NO": 999, "REV_AT_EPOCH": 97305, "BSTAR": 0.000217, "MEAN_MOTION_DOT": 7.51e-06, "MEAN_MOTION_DDOT": 0}, "tle": {"line1": "1 31282U 99025BNQ 25359.53097169  .00000751  00000+0  21700-3 0  9990", "line2": "2 31282  99.2176 277.8550 0126915 248.5077 110.2539 14.43490809973050"}}, "geometry": {"type": "Point", "coordinates": [86.29526984606288, -56.0066099885945]}}, {"type": "Feature", "properties": {"norad_id": 31284, "name": "FENGYUN 1C DEB", "group": "fengyun-1c-debris", "lat": -43.73171870232092, "lon": -92.43848204740834, "alt_km": 1000.3131104457198, "timestamp": "2025-12-27T17:24:57.686899+00:00", "meta": {"OBJECT_NAME": "FENGYUN 1C DEB", "OBJECT_ID": "1999-025BNS", "EPOCH": "2025-12-27T02:36:09.991872", "MEAN_MOTION": 13.97921268, "ECCENTRICITY": 0.01422132, "INCLINATION": 99.7202, "RA_OF_ASC_NODE": 96.3462, "ARG_OF_PERICENTER": 20.0608, "MEAN_ANOMALY": 340.6066, "EPHEMERIS_TYPE": 0, "CLASSIFICATION_TYPE": "U", "NORAD_CAT_ID": 31284, "ELEMENT_SET_NO": 999, "REV_AT_EPOCH": 95363, "BSTAR": 0.00062052381, "MEAN_MOTION_DOT": 9.09e-06, "MEAN_MOTION_DDOT": 0}, "tle": {"line1": "1 31284U 99025BNS 25361.10844898  .00000909  00000+0  62052-3 0  9997", "line2": "2 31284  99.7202  96.3462 0142213  20.0608 340.6066 13.97921268953637"}}, "geometry": {"type": "Point", "coordinates": [-92.43848204740834, -43.73171870232092]}}, {"type": "Feature", "properties": {"norad_id": 31285, "name": "FENGYUN 1C DEB", "group": "fengyun-1c-debris", "lat": -71.24747560407766, "lon": 7.943012297195324, "alt_km": 927.435819039205, "timestamp": "2025-12-27T17:24:57.686909+00:00", "meta": {"OBJECT_NAME": "FENGYUN 1C DEB", "OBJECT_ID": "1999-025BNT", "EPOCH": "2025-12-27T10:03:40.860288", "MEAN_MOTION": 14.26053088, "ECCENTRICITY": 0.0200482, "INCLINATION": 98.521, "RA_OF_ASC_NODE": 341.4393, "ARG_OF_PERICENTER": 143.8974, "MEAN_ANOMALY": 9.2042, "EPHEMERIS_TYPE": 0, "CLASSIFICATION_TYPE": "U", "NORAD_CAT_ID": 31285, "ELEMENT_SET_NO": 999, "REV_AT_EPOCH": 97508, "BSTAR": 0.00017351, "MEAN_MOTION_DOT": 4.67e-06, "MEAN_MOTION_DDOT": 0}, "tle": {"line1": "1 31285U 99025BNT 25361.41922292  .00000467  00000+0  17351-3 0  9998", "line2": "2 31285  98.5210 341.4393 0200482 143.8974   9.2042 14.26053088975088"}}, "geometry": {"type": "Point", "coordinates": [7.943012297195324, -71.24747560407766]}}, {"type": "Feature", "properties": {"norad_id": 31286, "name": "FENGYUN 1C DEB", "group": "fengyun-1c-debris", "lat": -59.257472450267876, "lon": 56.97142817206943, "alt_km": 765.9216387825245, "timestamp": "2025-12-27T17:24:57.686946+00:00", "meta": {"OBJECT_NAME": "FENGYUN 1C DEB", "OBJECT_ID": "1999-025BNU", "EPOCH": "2025-12-24T10:39:17.716320", "MEAN_MOTION": 14.22891604, "ECCENTRICITY": 0.00786424, "INCLINATION": 100.8587, "RA_OF_ASC_NODE": 251.7618, "ARG_OF_PERICENTER": 248.2654, "MEAN_ANOMALY": 111.0132, "EPHEMERIS_TYPE": 0, "CLASSIFICATION_TYPE": "U", "NORAD_CAT_ID": 31286, "ELEMENT_SET_NO": 999, "REV_AT_EPOCH": 64186, "BSTAR": 0.0027763524, "MEAN_MOTION_DOT": 6.385e-05, "MEAN_MOTION_DDOT": 0}, "tle": {"line1": "1 31286U 99025BNU 25358.44395505  .00006385  00000+0  27764-2 0  9992", "line2": "2 31286 100.8587 251.7618 0078642 248.2654 111.0132 14.22891604641860"}}, "geometry": {"type": "Point", "coordinates": [56.97142817206943, -59.257472450267876]}}]}